OBJECT_NAME,OBJECT_ID,EPOCH,MEAN_MOTION,ECCENTRICITY,INCLINATION,RA_OF_ASC_NODE,ARG_OF_PERICENTER,MEAN_ANOMALY,EPHEMERIS_TYPE,CLASSIFICATION_TYPE,NORAD_CAT_ID,ELEMENT_SET_NO,REV_AT_EPOCH,BSTAR,MEAN_MOTION_DOT,MEAN_MOTION_DDOT
STARLINK-35640,2025-265W,2026-07-16T06:00:29.496096,15.27589579,.00011074,42.9989,272.0182,272.3109,87.7616,0,U,66536,999,3677,.30016253E-3,.8009E-4,0
STARLINK-35582,2025-265X,2026-07-16T13:40:09.916608,15.27593540,.00016398,43.0000,270.1136,279.3918,80.6748,0,U,66537,999,3682,.28829624E-3,.7683E-4,0
STARLINK-35577,2025-265Y,2026-07-16T13:34:36.721920,15.27596971,.00020098,43.0031,270.0855,274.1611,85.9011,0,U,66538,999,3682,.43655945E-3,.11776E-3,0
STARLINK-35697,2025-265Z,2026-07-16T14:59:32.479872,15.27583404,.00033556,43.0039,269.6664,288.9102,71.1385,0,U,66539,999,3683,.38203783E-3,.10267E-3,0
STARLINK-35818,2025-265AA,2026-07-16T14:24:34.403616,15.27588117,.00016622,43.0020,270.3483,269.5830,90.4831,0,U,66540,999,3682,.17880543E-3,.4662E-4,0
STARLINK-35796,2025-265AB,2026-07-16T12:15:15.715584,15.27591877,.00012716,42.9999,270.5339,268.8653,91.2053,0,U,66541,999,3681,.23265399E-3,.6148E-4,0
STARLINK-35833,2025-265AC,2026-07-16T06:37:29.663328,15.27586472,.00013953,42.9993,272.2160,244.8311,115.2397,0,U,66542,999,3677,.22756277E-3,.6006E-4,0
STARLINK-35315,2025-265AD,2026-07-16T12:28:12.750528,15.27596038,.00018621,43.0036,270.6005,277.6381,82.4260,0,U,66543,999,3681,.37686779E-3,.10128E-3,0
STARLINK-35728,2025-265AE,2026-07-16T11:40:06.225888,15.27588292,.00005858,42.9970,270.3432,246.5190,113.5601,0,U,66544,999,3681,.24725466E-3,.655E-4,0
STARLINK-35699,2025-268A,2026-07-16T10:15:52.306272,15.27583719,.00008652,42.9991,340.4473,262.6143,97.4610,0,U,66557,999,3764,.27748988E-3,.7382E-4,0
STARLINK-35695,2025-268B,2026-07-16T10:10:18.305472,15.27604790,.0001668,43.0009,340.4167,253.3146,106.7523,0,U,66558,999,3764,.50066429E-3,.13551E-3,0
STARLINK-35419,2025-268C,2026-07-16T11:13:01.095456,15.27595019,.00014087,43.0014,339.8822,261.4125,98.6568,0,U,66559,999,3765,.37163298E-3,.9983E-4,0
STARLINK-35411,2025-268D,2026-07-16T09:35:09.923424,15.27588771,.00011142,43.0003,340.2363,313.4753,46.6005,0,U,66560,999,3764,.29626549E-3,.7901E-4,0
STARLINK-35305,2025-268E,2026-07-15T09:51:43.174368,15.27585293,.00024484,43.0065,345.7156,291.0872,68.9717,0,U,66561,999,3749,.35285856E-3,.9462E-4,0
STARLINK-35579,2025-268F,2026-07-16T11:03:47.113344,15.27577590,.00025004,43.0026,339.8343,289.5157,70.5424,0,U,66562,999,3765,.29724299E-3,.7926E-4,0
STARLINK-35437,2025-268G,2026-07-16T10:52:40.096704,15.27588408,.00011839,43.0015,339.7724,234.6063,125.4678,0,U,66563,999,3765,.39344998E-3,.10583E-3,0
STARLINK-35358,2025-268H,2026-07-16T10:47:06.796608,15.27589173,.00011057,42.9998,339.7419,219.0405,141.0367,0,U,66564,999,3765,.29335264E-3,.7821E-4,0
STARLINK-35893,2025-268J,2026-07-16T09:07:24.832992,15.27587660,.00016493,43.0065,340.0875,276.2990,83.7674,0,U,66565,999,3764,.35471887E-3,.9514E-4,0
STARLINK-35871,2025-268K,2026-07-16T10:37:51.823488,15.27586384,.00015949,43.0014,339.6939,272.7276,87.3393,0,U,66566,999,3765,.2436724E-3,.645E-4,0
STARLINK-35825,2025-268L,2026-07-16T10:32:18.517344,15.27592366,.0000994,43.0005,339.6612,212.0807,147.9985,0,U,66567,999,3765,.36136654E-3,.9699E-4,0
STARLINK-35803,2025-268M,2026-07-16T10:24:54.532800,15.27589439,.00006392,42.9998,339.6243,241.7672,118.3115,0,U,66568,999,3765,.4020858E-3,.10822E-3,0
STARLINK-35835,2025-268N,2026-07-16T10:21:12.553056,15.27591948,.0000577,43.0001,339.6036,232.1648,127.9151,0,U,66569,999,3765,.36279562E-3,.9738E-4,0
STARLINK-35834,2025-268P,2026-07-16T10:17:43.509120,15.27599844,.00006734,42.9984,340.4547,219.7091,140.3712,0,U,66570,999,3764,.27961972E-3,.7445E-4,0
STARLINK-35836,2025-268Q,2026-07-16T10:12:10.403424,15.27583600,.00014314,42.9994,340.4249,279.1951,80.8739,0,U,66571,999,3764,.31031651E-3,.8288E-4,0
STARLINK-35870,2025-268R,2026-07-16T10:02:55.035456,15.27587043,.00010503,42.9995,340.3786,186.0922,173.9917,0,U,66572,999,3764,.28944643E-3,.7713E-4,0
STARLINK-35650,2025-268S,2026-07-16T09:57:22.266720,15.27586016,.00020442,43.0018,340.3506,279.7593,80.3028,0,U,66573,999,3764,.29072268E-3,.7748E-4,0
STARLINK-35812,2025-268T,2026-07-16T09:51:49.260384,15.27585751,.00010581,42.9997,340.3184,268.6309,91.4421,0,U,66574,999,3764,.29977206E-3,.7997E-4,0
STARLINK-35810,2025-268U,2026-07-16T09:46:16.235904,15.27584762,.00014212,43.0015,340.2910,264.8265,95.2425,0,U,66575,999,3764,.28817567E-3,.7677E-4,0
STARLINK-35814,2025-268V,2026-07-16T09:40:42.998016,15.27587016,.00021788,43.0034,340.2615,275.6041,84.4562,0,U,66576,999,3764,.35248101E-3,.9452E-4,0
STARLINK-35815,2025-268W,2026-07-16T11:05:37.100544,15.27586875,.0001356,42.9992,339.8353,224.2168,135.8575,0,U,66577,999,3765,.27558613E-3,.7331E-4,0
