STARLINK-35640          
1 66536U 25265W   26197.25034139  .00008009  00000+0  30016-3 0  9997
2 66536  42.9989 272.0182 0001107 272.3109  87.7616 15.27589579 36770
STARLINK-35582          
1 66537U 25265X   26197.56955922  .00007683  00000+0  28830-3 0  9992
2 66537  43.0000 270.1136 0001639 279.3918  80.6748 15.27593540 36827
STARLINK-35577          
1 66538U 25265Y   26197.56570280  .00011776  00000+0  43656-3 0  9994
2 66538  43.0031 270.0855 0002009 274.1611  85.9011 15.27596971 36826
STARLINK-35697          
1 66539U 25265Z   26197.62468148  .00010267  00000+0  38204-3 0  9998
2 66539  43.0039 269.6664 0003355 288.9102  71.1385 15.27583404 36839
STARLINK-35818          
1 66540U 25265AA  26197.60039819  .00004662  00000+0  17881-3 0  9997
2 66540  43.0020 270.3483 0001662 269.5830  90.4831 15.27588117 36826
STARLINK-35796          
1 66541U 25265AB  26197.51059856  .00006148  00000+0  23265-3 0  9995
2 66541  42.9999 270.5339 0001271 268.8653  91.2053 15.27591877 36814
STARLINK-35833          
1 66542U 25265AC  26197.27603777  .00006006  00000+0  22756-3 0  9993
2 66542  42.9993 272.2160 0001395 244.8311 115.2397 15.27586472 36770
STARLINK-35315          
1 66543U 25265AD  26197.51959202  .00010128  00000+0  37687-3 0  9997
2 66543  43.0036 270.6005 0001862 277.6381  82.4260 15.27596038 36819
STARLINK-35728          
1 66544U 25265AE  26197.48618317  .00006550  00000+0  24725-3 0  9996
2 66544  42.9970 270.3432 0000585 246.5190 113.5601 15.27588292 36818
STARLINK-35699          
1 66557U 25268A   26197.42768873  .00007382  00000+0  27749-3 0  9993
2 66557  42.9991 340.4473 0000865 262.6143  97.4610 15.27583719 37648
STARLINK-35695          
1 66558U 25268B   26197.42382298  .00013551  00000+0  50066-3 0  9990
2 66558  43.0009 340.4167 0001668 253.3146 106.7523 15.27604790 37643
STARLINK-35419          
1 66559U 25268C   26197.46737379  .00009983  00000+0  37163-3 0  9996
2 66559  43.0014 339.8822 0001408 261.4125  98.6568 15.27595019 37651
STARLINK-35411          
1 66560U 25268D   26197.39942041  .00007901  00000+0  29627-3 0  9998
2 66560  43.0003 340.2363 0001114 313.4753  46.6005 15.27588771 37641
STARLINK-35305          
1 66561U 25268E   26196.41091637  .00009462  00000+0  35286-3 0  9999
2 66561  43.0065 345.7156 0002448 291.0872  68.9717 15.27585293 37490
STARLINK-35579          
1 66562U 25268F   26197.46096196  .00007926  00000+0  29724-3 0  9994
2 66562  43.0026 339.8343 0002500 289.5157  70.5424 15.27577590 37650
STARLINK-35437          
1 66563U 25268G   26197.45324186  .00010583  00000+0  39345-3 0  9990
2 66563  43.0015 339.7724 0001183 234.6063 125.4678 15.27588408 37655
STARLINK-35358          
1 66564U 25268H   26197.44938422  .00007821  00000+0  29335-3 0  9993
2 66564  42.9998 339.7419 0001105 219.0405 141.0367 15.27589173 37655
STARLINK-35893          
1 66565U 25268J   26197.38014853  .00009514  00000+0  35472-3 0  9990
2 66565  43.0065 340.0875 0001649 276.2990  83.7674 15.27587660 37642
STARLINK-35871          
1 66566U 25268K   26197.44296092  .00006450  00000+0  24367-3 0  9992
2 66566  43.0014 339.6939 0001594 272.7276  87.3393 15.27586384 37650
STARLINK-35825          
1 66567U 25268L   26197.43910321  .00009699  00000+0  36137-3 0  9996
2 66567  43.0005 339.6612 0000994 212.0807 147.9985 15.27592366 37656
STARLINK-35803          
1 66568U 25268M   26197.43396450  .00010822  00000+0  40209-3 0  9993
2 66568  42.9998 339.6243 0000639 241.7672 118.3115 15.27589439 37655
STARLINK-35835          
1 66569U 25268N   26197.43139529  .00009738  00000+0  36280-3 0  9994
2 66569  43.0001 339.6036 0000577 232.1648 127.9151 15.27591948 37655
STARLINK-35834          
1 66570U 25268P   26197.42897580  .00007445  00000+0  27962-3 0  9993
2 66570  42.9984 340.4547 0000673 219.7091 140.3712 15.27599844 37646
STARLINK-35836          
1 66571U 25268Q   26197.42512041  .00008288  00000+0  31032-3 0  9999
2 66571  42.9994 340.4249 0001431 279.1951  80.8739 15.27583600 37645
STARLINK-35870          
1 66572U 25268R   26197.41869254  .00007713  00000+0  28945-3 0  9991
2 66572  42.9995 340.3786 0001050 186.0922 173.9917 15.27587043 37640
STARLINK-35650          
1 66573U 25268S   26197.41484105  .00007748  00000+0  29072-3 0  9990
2 66573  43.0018 340.3506 0002044 279.7593  80.3028 15.27586016 37640
STARLINK-35812          
1 66574U 25268T   26197.41098681  .00007997  00000+0  29977-3 0  9991
2 66574  42.9997 340.3184 0001058 268.6309  91.4421 15.27585751 37648
STARLINK-35810          
1 66575U 25268U   26197.40713236  .00007677  00000+0  28818-3 0  9999
2 66575  43.0015 340.2910 0001421 264.8265  95.2425 15.27584762 37648
STARLINK-35814          
1 66576U 25268V   26197.40327544  .00009452  00000+0  35248-3 0  9991
2 66576  43.0034 340.2615 0002178 275.6041  84.4562 15.27587016 37641
STARLINK-35815          
1 66577U 25268W   26197.46223496  .00007331  00000+0  27559-3 0  9999
2 66577  42.9992 339.8353 0001356 224.2168 135.8575 15.27586875 37651
